[
  { "name": "Afghanistan", "dialCode": "+93", "code": "AF", "flag": "ğŸ‡¦ğŸ‡«" },
  { "name": "Albania", "dialCode": "+355", "code": "AL", "flag": "ğŸ‡¦ğŸ‡±" },
  { "name": "Algeria", "dialCode": "+213", "code": "DZ", "flag": "ğŸ‡©ğŸ‡¿" },
  { "name": "Andorra", "dialCode": "+376", "code": "AD", "flag": "ğŸ‡¦ğŸ‡©" },
  { "name": "Angola", "dialCode": "+244", "code": "AO", "flag": "ğŸ‡¦ğŸ‡´" },
  { "name": "Argentina", "dialCode": "+54", "code": "AR", "flag": "ğŸ‡¦ğŸ‡·" },
  { "name": "Armenia", "dialCode": "+374", "code": "AM", "flag": "ğŸ‡¦ğŸ‡²" },
  { "name": "Australia", "dialCode": "+61", "code": "AU", "flag": "ğŸ‡¦ğŸ‡º" },
  { "name": "Austria", "dialCode": "+43", "code": "AT", "flag": "ğŸ‡¦ğŸ‡¹" },
  { "name": "Azerbaijan", "dialCode": "+994", "code": "AZ", "flag": "ğŸ‡¦ğŸ‡¿" },
  { "name": "Bahrain", "dialCode": "+973", "code": "BH", "flag": "ğŸ‡§ğŸ‡­" },
  { "name": "Bangladesh", "dialCode": "+880", "code": "BD", "flag": "ğŸ‡§ğŸ‡©" },
  { "name": "Belgium", "dialCode": "+32", "code": "BE", "flag": "ğŸ‡§ğŸ‡ª" },
  { "name": "Brazil", "dialCode": "+55", "code": "BR", "flag": "ğŸ‡§ğŸ‡·" },
  { "name": "Canada", "dialCode": "+1", "code": "CA", "flag": "ğŸ‡¨ğŸ‡¦" },
  { "name": "China", "dialCode": "+86", "code": "CN", "flag": "ğŸ‡¨ğŸ‡³" },
  { "name": "Denmark", "dialCode": "+45", "code": "DK", "flag": "ğŸ‡©ğŸ‡°" },
  { "name": "Egypt", "dialCode": "+20", "code": "EG", "flag": "ğŸ‡ªğŸ‡¬" },
  { "name": "France", "dialCode": "+33", "code": "FR", "flag": "ğŸ‡«ğŸ‡·" },
  { "name": "Germany", "dialCode": "+49", "code": "DE", "flag": "ğŸ‡©ğŸ‡ª" },
  { "name": "Greece", "dialCode": "+30", "code": "GR", "flag": "ğŸ‡¬ğŸ‡·" },
  { "name": "India", "dialCode": "+91", "code": "IN", "flag": "ğŸ‡®ğŸ‡³" },
  { "name": "Italy", "dialCode": "+39", "code": "IT", "flag": "ğŸ‡®ğŸ‡¹" },
  { "name": "Japan", "dialCode": "+81", "code": "JP", "flag": "ğŸ‡¯ğŸ‡µ" },
  { "name": "Morocco", "dialCode": "+212", "code": "MA", "flag": "ğŸ‡²ğŸ‡¦" },
  { "name": "Netherlands", "dialCode": "+31", "code": "NL", "flag": "ğŸ‡³ğŸ‡±" },
  { "name": "Norway", "dialCode": "+47", "code": "NO", "flag": "ğŸ‡³ğŸ‡´" },
  { "name": "Pakistan", "dialCode": "+92", "code": "PK", "flag": "ğŸ‡µğŸ‡°" },
  { "name": "Poland", "dialCode": "+48", "code": "PL", "flag": "ğŸ‡µğŸ‡±" },
  { "name": "Portugal", "dialCode": "+351", "code": "PT", "flag": "ğŸ‡µğŸ‡¹" },
  { "name": "Russia", "dialCode": "+7", "code": "RU", "flag": "ğŸ‡·ğŸ‡º" },
  { "name": "Saudi Arabia", "dialCode": "+966", "code": "SA", "flag": "ğŸ‡¸ğŸ‡¦" },
  { "name": "South Africa", "dialCode": "+27", "code": "ZA", "flag": "ğŸ‡¿ğŸ‡¦" },
  { "name": "Spain", "dialCode": "+34", "code": "ES", "flag": "ğŸ‡ªğŸ‡¸" },
  { "name": "Sweden", "dialCode": "+46", "code": "SE", "flag": "ğŸ‡¸ğŸ‡ª" },
  { "name": "Switzerland", "dialCode": "+41", "code": "CH", "flag": "ğŸ‡¨ğŸ‡­" },
  { "name": "Tunisia", "dialCode": "+216", "code": "TN", "flag": "ğŸ‡¹ğŸ‡³" },
  { "name": "Turkey", "dialCode": "+90", "code": "TR", "flag": "ğŸ‡¹ğŸ‡·" },
  { "name": "United Arab Emirates", "dialCode": "+971", "code": "AE", "flag": "ğŸ‡¦ğŸ‡ª" },
  { "name": "United Kingdom", "dialCode": "+44", "code": "GB", "flag": "ğŸ‡¬ğŸ‡§" },
  { "name": "United States", "dialCode": "+1", "code": "US", "flag": "ğŸ‡ºğŸ‡¸" },
  { "name": "Vietnam", "dialCode": "+84", "code": "VN", "flag": "ğŸ‡»ğŸ‡³" }
]
